{
  "norad_id": 64052,
  "name": "TIANYI E",
  "history": [
    {
      "epoch": "2026-03-28T22:18:15.459840Z",
      "apogee_km": 502.1044698539554,
      "perigee_km": 495.97690453466475,
      "latitude_deg": -1.6696010627070717e-05,
      "longitude_deg": 0.8786453907755759,
      "height_km": 502.5469449532498,
      "semi_major_axis_km": 6877.177687194309,
      "eccentricity": 0.0004455,
      "inclination_deg": 97.3801,
      "raan_deg": 161.7858,
      "arg_perigee_deg": 97.8777,
      "mean_anomaly_deg": 262.2965,
      "mean_motion_rev_day": 15.22254946
    },
    {
      "epoch": "2026-03-29T04:36:53.070624Z",
      "apogee_km": 502.0951949364562,
      "perigee_km": 495.92776817819595,
      "latitude_deg": 6.177635515173946e-05,
      "longitude_deg": -93.77923711448696,
      "height_km": 502.47794231056616,
      "semi_major_axis_km": 6877.148481557326,
      "eccentricity": 0.0004484,
      "inclination_deg": 97.38,
      "raan_deg": 162.0438,
      "arg_perigee_deg": 97.0823,
      "mean_anomaly_deg": 263.0924,
      "mean_motion_rev_day": 15.22264643
    },
    {
      "epoch": "2026-03-30T04:16:42.967776Z",
      "apogee_km": 501.9678995696095,
      "perigee_km": 495.8542038516398,
      "latitude_deg": 9.376227642770228e-06,
      "longitude_deg": -88.7408747589212,
      "height_km": 502.26177777461254,
      "semi_major_axis_km": 6877.048051710624,
      "eccentricity": 0.0004445,
      "inclination_deg": 97.3798,
      "raan_deg": 163.0119,
      "arg_perigee_deg": 94.9618,
      "mean_anomaly_deg": 265.2126,
      "mean_motion_rev_day": 15.22297989
    },
    {
      "epoch": "2026-03-30T05:51:22.235904Z",
      "apogee_km": 501.9513328936091,
      "perigee_km": 495.8655602960989,
      "latitude_deg": 4.016323022625311e-05,
      "longitude_deg": -112.40468453027162,
      "height_km": 502.2573434022007,
      "semi_major_axis_km": 6877.045446594853,
      "eccentricity": 0.00044247,
      "inclination_deg": 97.3799,
      "raan_deg": 163.0765,
      "arg_perigee_deg": 94.9494,
      "mean_anomaly_deg": 265.2248,
      "mean_motion_rev_day": 15.22298854
    },
    {
      "epoch": "2026-03-30T15:19:17.683104Z",
      "apogee_km": 501.88231365934644,
      "perigee_km": 495.8591552052212,
      "latitude_deg": -7.363057708030021e-06,
      "longitude_deg": 105.61276180001546,
      "height_km": 502.16450000105135,
      "semi_major_axis_km": 6877.0077344322835,
      "eccentricity": 0.00043792,
      "inclination_deg": 97.3798,
      "raan_deg": 163.4637,
      "arg_perigee_deg": 93.947,
      "mean_anomaly_deg": 266.2267,
      "mean_motion_rev_day": 15.22311376
    },
    {
      "epoch": "2026-03-30T23:12:33.691968Z",
      "apogee_km": 501.8394073230702,
      "perigee_km": 495.8408952330974,
      "latitude_deg": 5.37226521171133e-05,
      "longitude_deg": -12.705188912060878,
      "height_km": 502.09011776858824,
      "semi_major_axis_km": 6876.9771512780835,
      "eccentricity": 0.00043613,
      "inclination_deg": 97.3798,
      "raan_deg": 163.7864,
      "arg_perigee_deg": 93.1245,
      "mean_anomaly_deg": 267.0491,
      "mean_motion_rev_day": 15.22321531
    },
    {
      "epoch": "2026-03-31T14:59:05.172288Z",
      "apogee_km": 501.760684667488,
      "perigee_km": 495.8081590231668,
      "latitude_deg": -2.1565104917756223e-05,
      "longitude_deg": 110.66108058314212,
      "height_km": 501.9424410158776,
      "semi_major_axis_km": 6876.921421845327,
      "eccentricity": 0.00043279,
      "inclination_deg": 97.3797,
      "raan_deg": 164.4317,
      "arg_perigee_deg": 91.3756,
      "mean_anomaly_deg": 268.7976,
      "mean_motion_rev_day": 15.22340036
    },
    {
      "epoch": "2026-03-31T21:17:41.561376Z",
      "apogee_km": 501.72669086978203,
      "perigee_km": 495.78917978262143,
      "latitude_deg": -4.713157119676377e-06,
      "longitude_deg": 16.00841065120317,
      "height_km": 501.8907386790742,
      "semi_major_axis_km": 6876.894935326201,
      "eccentricity": 0.0004317,
      "inclination_deg": 97.3796,
      "raan_deg": 164.6898,
      "arg_perigee_deg": 90.8918,
      "mean_anomaly_deg": 269.2813,
      "mean_motion_rev_day": 15.22348831
    },
    {
      "epoch": "2026-04-01T20:57:27.008064Z",
      "apogee_km": 501.6706089829868,
      "perigee_km": 495.6932779573226,
      "latitude_deg": 6.69490959545669e-05,
      "longitude_deg": 21.065052016246188,
      "height_km": 501.7136973953232,
      "semi_major_axis_km": 6876.818943470154,
      "eccentricity": 0.0004346,
      "inclination_deg": 97.3794,
      "raan_deg": 165.6576,
      "arg_perigee_deg": 88.9496,
      "mean_anomaly_deg": 271.2239,
      "mean_motion_rev_day": 15.22374065
    },
    {
      "epoch": "2026-04-02T20:37:10.651584Z",
      "apogee_km": 501.5443188260215,
      "perigee_km": 495.59046816213413,
      "latitude_deg": 6.422775615063532e-05,
      "longitude_deg": 26.129236253748655,
      "height_km": 501.4571510074781,
      "semi_major_axis_km": 6876.7043934940775,
      "eccentricity": 0.0004329,
      "inclination_deg": 97.3791,
      "raan_deg": 166.6254,
      "arg_perigee_deg": 86.2082,
      "mean_anomaly_deg": 273.965,
      "mean_motion_rev_day": 15.22412104
    },
    {
      "epoch": "2026-04-02T22:11:49.466976Z",
      "apogee_km": 501.5372202271137,
      "perigee_km": 495.5744398741781,
      "latitude_deg": -1.3281731302684632e-05,
      "longitude_deg": 2.4675319653150702,
      "height_km": 501.448052876865,
      "semi_major_axis_km": 6876.692830050646,
      "eccentricity": 0.00043355,
      "inclination_deg": 97.379,
      "raan_deg": 166.6902,
      "arg_perigee_deg": 86.2612,
      "mean_anomaly_deg": 273.912,
      "mean_motion_rev_day": 15.22415944
    },
    {
      "epoch": "2026-04-03T20:16:51.907872Z",
      "apogee_km": 501.35844727420044,
      "perigee_km": 495.5092361162542,
      "latitude_deg": -3.8286530833360205e-05,
      "longitude_deg": 31.203906655111435,
      "height_km": 501.2339800774146,
      "semi_major_axis_km": 6876.570841695227,
      "eccentricity": 0.0004253,
      "inclination_deg": 97.3785,
      "raan_deg": 167.5937,
      "arg_perigee_deg": 84.3734,
      "mean_anomaly_deg": 275.7987,
      "mean_motion_rev_day": 15.22456455
    },
    {
      "epoch": "2026-04-04T19:56:30.960960Z",
      "apogee_km": 501.1928576336213,
      "perigee_km": 495.4620121735725,
      "latitude_deg": -2.1425509725956308e-05,
      "longitude_deg": 36.28736598004792,
      "height_km": 500.9756464003013,
      "semi_major_axis_km": 6876.464434903597,
      "eccentricity": 0.0004167,
      "inclination_deg": 97.3783,
      "raan_deg": 168.5616,
      "arg_perigee_deg": 81.1888,
      "mean_anomaly_deg": 278.982,
      "mean_motion_rev_day": 15.22491793
    },
    {
      "epoch": "2026-04-05T14:52:12.970848Z",
      "apogee_km": 501.1099823771956,
      "perigee_km": 495.4083497321499,
      "latitude_deg": 6.648462155487966e-06,
      "longitude_deg": 112.35946075374329,
      "height_km": 500.810464926696,
      "semi_major_axis_km": 6876.396166054673,
      "eccentricity": 0.00041458,
      "inclination_deg": 97.3781,
      "raan_deg": 169.3361,
      "arg_perigee_deg": 79.1642,
      "mean_anomaly_deg": 281.0061,
      "mean_motion_rev_day": 15.22514466
    },
    {
      "epoch": "2026-04-05T21:10:46.743744Z",
      "apogee_km": 501.0690829602363,
      "perigee_km": 495.39882747056527,
      "latitude_deg": -3.980401720584223e-05,
      "longitude_deg": 17.717728779665187,
      "height_km": 500.75886374402563,
      "semi_major_axis_km": 6876.3709552154005,
      "eccentricity": 0.0004123,
      "inclination_deg": 97.3781,
      "raan_deg": 169.5942,
      "arg_perigee_deg": 78.5583,
      "mean_anomaly_deg": 281.6116,
      "mean_motion_rev_day": 15.22522839
    },
    {
      "epoch": "2026-04-06T06:38:37.234176Z",
      "apogee_km": 501.0434671893563,
      "perigee_km": 495.3619602642875,
      "latitude_deg": -6.6269755904358e-05,
      "longitude_deg": -124.24401921044152,
      "height_km": 500.7074197043954,
      "semi_major_axis_km": 6876.339713726822,
      "eccentricity": 0.00041312,
      "inclination_deg": 97.378,
      "raan_deg": 169.9815,
      "arg_perigee_deg": 78.165,
      "mean_anomaly_deg": 282.0049,
      "mean_motion_rev_day": 15.22533215
    },
    {
      "epoch": "2026-04-07T14:11:23.970624Z",
      "apogee_km": 500.9435241057108,
      "perigee_km": 495.2858817295837,
      "latitude_deg": -6.342155840976607e-06,
      "longitude_deg": 122.55637319521318,
      "height_km": 500.47921449290794,
      "semi_major_axis_km": 6876.251702917647,
      "eccentricity": 0.00041139,
      "inclination_deg": 97.3778,
      "raan_deg": 171.2722,
      "arg_perigee_deg": 75.1928,
      "mean_anomaly_deg": 284.9764,
      "mean_motion_rev_day": 15.22562446
    },
    {
      "epoch": "2026-04-07T20:29:57.036768Z",
      "apogee_km": 500.9208909216368,
      "perigee_km": 495.27275246050067,
      "latitude_deg": 1.1464549177235528e-05,
      "longitude_deg": 27.91758550891685,
      "height_km": 500.4313420241352,
      "semi_major_axis_km": 6876.233821691068,
      "eccentricity": 0.0004107,
      "inclination_deg": 97.3777,
      "raan_deg": 171.5303,
      "arg_perigee_deg": 74.5361,
      "mean_anomaly_deg": 285.6329,
      "mean_motion_rev_day": 15.22568385
    },
    {
      "epoch": "2026-04-08T15:25:35.779872Z",
      "apogee_km": 500.8146180153544,
      "perigee_km": 495.2889127235039,
      "latitude_deg": 4.73321114787158e-05,
      "longitude_deg": 104.00352700453494,
      "height_km": 500.311109461083,
      "semi_major_axis_km": 6876.188765369429,
      "eccentricity": 0.0004018,
      "inclination_deg": 97.3776,
      "raan_deg": 172.305,
      "arg_perigee_deg": 72.552,
      "mean_anomaly_deg": 287.6156,
      "mean_motion_rev_day": 15.2258335
    },
    {
      "epoch": "2026-04-09T21:23:40.757280Z",
      "apogee_km": 500.6869834785484,
      "perigee_km": 495.2562328998001,
      "latitude_deg": 1.3353127311316419e-05,
      "longitude_deg": 14.478244432473218,
      "height_km": 500.10458634974395,
      "semi_major_axis_km": 6876.1086081891735,
      "eccentricity": 0.0003949,
      "inclination_deg": 97.3776,
      "raan_deg": 173.5312,
      "arg_perigee_deg": 69.4071,
      "mean_anomaly_deg": 290.7589,
      "mean_motion_rev_day": 15.22609974
    },
    {
      "epoch": "2026-04-10T06:51:29.268288Z",
      "apogee_km": 500.6222156338781,
      "perigee_km": 495.2680855065164,
      "latitude_deg": 5.512820581728627e-05,
      "longitude_deg": -127.47534226373867,
      "height_km": 500.0536353040102,
      "semi_major_axis_km": 6876.082150570197,
      "eccentricity": 0.00038933,
      "inclination_deg": 97.3775,
      "raan_deg": 173.9184,
      "arg_perigee_deg": 68.5331,
      "mean_anomaly_deg": 291.6321,
      "mean_motion_rev_day": 15.22618762
    },
    {
      "epoch": "2026-04-11T20:42:41.702688Z",
      "apogee_km": 500.49461486073596,
      "perigee_km": 495.2221016200365,
      "latitude_deg": 3.327690135705151e-06,
      "longitude_deg": 24.717165243364875,
      "height_km": 499.8398182024552,
      "semi_major_axis_km": 6875.995358240386,
      "eccentricity": 0.0003834,
      "inclination_deg": 97.3778,
      "raan_deg": 175.4673,
      "arg_perigee_deg": 65.1702,
      "mean_anomaly_deg": 294.9933,
      "mean_motion_rev_day": 15.22647591
    }
  ]
}